[{"OBJECT_NAME":"STARLINK-35792","OBJECT_ID":"2025-298T","EPOCH":"2026-03-09T22:52:54.146208","MEAN_MOTION":14.99149972,"ECCENTRICITY":0.00026013,"INCLINATION":70.003,"RA_OF_ASC_NODE":13.9233,"ARG_OF_PERICENTER":243.077,"MEAN_ANOMALY":117.0124,"EPHEMERIS_TYPE":0,"CLASSIFICATION_TYPE":"U","NORAD_CAT_ID":67092,"ELEMENT_SET_NO":999,"REV_AT_EPOCH":1325,"BSTAR":0.00049307107,"MEAN_MOTION_DOT":5.921e-5,"MEAN_MOTION_DDOT":0},{"OBJECT_NAME":"NOAA 17 DEB","OBJECT_ID":"2002-032AW","EPOCH":"2026-03-09T06:42:02.833344","MEAN_MOTION":15.0155296,"ECCENTRICITY":0.0036655,"INCLINATION":98.9692,"RA_OF_ASC_NODE":191.508,"ARG_OF_PERICENTER":264.8759,"MEAN_ANOMALY":94.8277,"EPHEMERIS_TYPE":0,"CLASSIFICATION_TYPE":"U","NORAD_CAT_ID":48713,"ELEMENT_SET_NO":999,"REV_AT_EPOCH":26502,"BSTAR":0.0031489084,"MEAN_MOTION_DOT":0.00041514,"MEAN_MOTION_DDOT":0}]
